STARLINK-30607          
1 58099U 23161C   24291.44911354  .00011849  00000+0  36283-3 0  9990
2 58099  53.1750 357.1952 0001527  92.2375 267.8803 15.34263606 56336
STARLINK-30600          
1 58100U 23161D   24291.49198195 -.00000126  00000+0  78699-5 0  9994
2 58100  53.1610   6.0989 0001206  77.1841 282.9295 15.30188451 56487
STARLINK-30605          
1 58101U 23161E   24291.47826968 -.00000466  00000+0 -36094-5 0  9990
2 58101  53.1608   6.0201 0001575 113.8328 246.2838 15.30181383 56482
STARLINK-30592          
1 58102U 23161F   24291.47510342 -.00000693  00000+0 -11271-4 0  9998
2 58102  53.1608   6.0076 0001394  73.2565 286.8589 15.30180365 56486
STARLINK-30589          
1 58103U 23161G   24291.51517093 -.00003071  00000+0 -91650-4 0  9996
2 58103  53.1597   6.0571 0001646  92.4212 267.6977 15.30176643 56488
STARLINK-30617          
1 58104U 23161H   24291.51833883 -.00001208  00000+0 -28690-4 0  9999
2 58104  53.1610   6.0745 0001193  96.2331 263.8806 15.30182840 56484
STARLINK-30616          
1 58105U 23161J   24291.50637463 -.00002042  00000+0 -49619-4 0  9996
2 58105  53.1614   2.4716 0001162  77.8413 282.2720 15.34213923 56536
STARLINK-30612          
1 58106U 23161K   24291.50672868 -.00001460  00000+0 -32315-4 0  9993
2 58106  53.1616   2.4860 0001442 101.9222 258.1943 15.34201799 56387
STARLINK-30421          
1 58107U 23161L   24291.49740820 -.00001747  00000+0 -40868-4 0  9996
2 58107  53.1605   2.3980 0001221  96.5687 263.5454 15.34200615 56548
STARLINK-30611          
1 58108U 23161M   24291.49705285 -.00003212  00000+0 -84504-4 0  9997
2 58108  53.1598   2.3666 0001374 131.5305 228.5815 15.34211429 56533
STARLINK-30606          
1 58109U 23161N   24291.48881543 -.00002146  00000+0 -60371-4 0  9990
2 58109  53.1606   6.0809 0001360 104.7081 255.4070 15.30187090 56615
STARLINK-30596          
1 58110U 23161P   24291.46559367  .00001741  00000+0  70903-4 0  9996
2 58110  53.1609   5.9450 0001535 121.2489 238.8662 15.30195758 56612
STARLINK-30595          
1 58111U 23161Q   24291.50148623  .00004346  00000+0  15894-3 0  9992
2 58111  53.1608   6.1715 0001707  93.9036 266.2160 15.30164648 56480
STARLINK-30593          
1 58112U 23161R   24291.49832087 -.00001249  00000+0 -30077-4 0  9997
2 58112  53.1606   6.1410 0001393  74.3464 285.7691 15.30179711 56594
STARLINK-30353          
1 58113U 23161S   24291.50781601 -.00001037  00000+0 -22888-4 0  9991
2 58113  53.1606   6.2066 0001146  66.7288 293.3833 15.30189369 56489
STARLINK-30572          
1 58114U 23161T   24291.49514853  .00000130  00000+0  16519-4 0  9998
2 58114  53.1600   6.1233 0001459  96.5468 263.5698 15.30179511 56483
STARLINK-30580          
1 58115U 23161U   24291.46876672 -.00000768  00000+0 -13803-4 0  9998
2 58115  53.1603   5.9412 0001715 119.1224 240.9949 15.30183570 56488
STARLINK-30493          
1 58116U 23161V   24291.63527116 -.00000593  00000+0 -79101-5 0  9994
2 58116  53.1612   5.5781 0001208  77.8984 282.2152 15.30199549 56505
STARLINK-30601          
1 58117U 23161W   24291.51099463 -.00002170  00000+0 -61190-4 0  9992
2 58117  53.1612   6.2292 0001491  81.8549 278.2621 15.30173679 56486
STARLINK-30795          
1 58118U 23162A   24291.56168656 -.00001150  00000+0 -70113-4 0  9992
2 58118  43.0025  14.1807 0000722 264.5249  95.5511 15.02539907 55774
STARLINK-30765          
1 58119U 23162B   24291.51296394  .00000987  00000+0  88134-4 0  9996
2 58119  43.0046  14.6609 0001604 267.7919  92.2740 15.02533408 55859
STARLINK-30768          
1 58120U 23162C   24291.55835740  .00008693  00000+0  65740-3 0  9995
2 58120  43.0019  14.1577 0000824 287.3114  72.7638 15.02559580 55777
STARLINK-30799          
1 58121U 23162D   24291.57833029  .00001732  00000+0  14324-3 0  9995
2 58121  43.0009  14.2888 0001298 274.2278  85.8416 15.02539728 54641
STARLINK-30759          
1 58122U 23162E   24291.55613433  .00013852  00000+0  10383-2 0  9995
2 58122  43.0047  14.1405 0002040 279.6430  80.4182 15.02541712 55854
STARLINK-30781          
1 58123U 23162F   24291.28911652  .00000671  00000+0  64721-4 0  9992
2 58123  43.0057  15.5741 0001098 265.1046  94.9671 15.02535831 55824
STARLINK-30754          
1 58124U 23162G   24291.57499037  .00000486  00000+0  51018-4 0  9992
2 58124  43.0039  14.2643 0001000 232.8422 127.2329 15.02552661 55778
STARLINK-30766          
1 58125U 23162H   24291.28578430  .00004545  00000+0  35129-3 0  9990
2 58125  43.0032  15.5485 0001821 265.9511  94.1123 15.02536955 55825
STARLINK-30767          
1 58126U 23162J   24291.54836688  .00001752  00000+0  14472-3 0  9997
2 58126  43.0037  14.0781 0001479 265.7304  94.3369 15.02536298 55869
STARLINK-30790          
1 58127U 23162K   24291.67798358  .00001200  00000+0  10388-3 0  9993
2 58127  43.0033  13.3325 0001013 280.9264  79.1464 15.02545826 55886
STARLINK-30787          
1 58128U 23162L   24291.54171028  .00001965  00000+0  16049-3 0  9997
2 58128  43.0052  14.0287 0001418 264.0525  96.0156 15.02534765 55869
STARLINK-30756          
1 58129U 23162M   24291.50519538  .00003985  00000+0  30995-3 0  9996
2 58129  43.0068  14.6027 0002019 278.6459  81.4155 15.02530469 55842
STARLINK-30783          
1 58130U 23162N   24291.73780333 -.00001314  00000+0 -82218-4 0  9998
2 58130  43.0012  12.9194 0000481 261.7630  98.3158 15.02549308 55880
STARLINK-30757          
1 58131U 23162P   24291.73447269  .00015883  00000+0  11876-2 0  9991
2 58131  43.0035  12.8943 0001364 270.3682  89.7004 15.02555125 55856
STARLINK-30770          
1 58132U 23162Q   24291.50185748  .00000256  00000+0  34004-4 0  9996
2 58132  43.0052  14.5738 0001089 269.2983  90.7734 15.02549295 55855
STARLINK-30758          
1 58133U 23162R   24291.53393477  .00009451  00000+0  71362-3 0  9993
2 58133  43.0017  13.9676 0000885 239.5008 120.5747 15.02541982 55875
STARLINK-30761          
1 58134U 23162S   24291.56501939  .00002643  00000+0  21067-3 0  9994
2 58134  42.9993  14.1834 0000345  63.5373 296.5505 15.02531834 55867
STARLINK-30772          
1 58135U 23162T   24291.73126604  .00004568  00000+0  35301-3 0  9990
2 58135  43.0075  13.7126 0001404 255.1663 104.9024 15.02532714 55796
STARLINK-30776          
1 58136U 23162U   24291.72792172  .00007004  00000+0  53274-3 0  9996
2 58136  43.0049  13.6706 0001146 269.8656  90.2055 15.02558437 55889
STARLINK-30782          
1 58137U 23162V   24291.25926340  .00012618  00000+0  94740-3 0  9991
2 58137  43.0041  16.1941 0001585 265.6815  94.3846 15.02539472 55824
STARLINK-30769          
1 58138U 23162W   24291.58499640  .00000415  00000+0  45832-4 0  9997
2 58138  43.0036  14.3371 0001176 256.7037 103.3674 15.02530084 54659
STARLINK-30775          
1 58139U 23162X   24291.65479677  .00000283  00000+0  36020-4 0  9996
2 58139  43.0031  14.0006 0001348 282.1552  77.9139 15.02542164 55872
STARLINK-30780          
1 58140U 23162Y   24291.58166038  .00000992  00000+0  88460-4 0  9996
2 58140  43.0035  14.3123 0000917 263.0935  96.9803 15.02541334 54657
YAOGAN-39 04A           
1 58141U 23163A   24291.83684186  .00029883  00000+0  12290-2 0  9991
2 58141  34.9971 204.3423 0009453 280.2898  79.6750 15.23178254 54922
YAOGAN-39 04B           
1 58143U 23163C   24291.90107656  .00024464  00000+0  97834-3 0  9991
2 58143  34.9951 203.9018 0004164 175.4304 184.6450 15.24185191 54921
YAOGAN-39 04C           
1 58145U 23163E   24291.89745689  .00030390  00000+0  12337-2 0  9994
2 58145  34.9942 203.8420 0008053 278.3291  81.6510 15.23623681 54932
COSMOS 2570             
1 58148U 23165A   24291.57996562  .00000080  00000+0  11173-3 0  9993
2 58148  67.1476 326.2073 0005278 272.6175  87.4305 13.96679367 49786
STARLINK-30802          
1 58150U 23166A   24291.79407603 -.00006302  00000+0 -20073-3 0  9998
2 58150  53.1576  59.0476 0001237 116.1118 244.0010 15.30214075 55426
STARLINK-30834          
1 58151U 23166B   24291.07980367  .00001268  00000+0  54953-4 0  9992
2 58151  53.1612  62.2064 0001002  93.9943 266.1172 15.30191809 55305
STARLINK-30833          
1 58152U 23166C   24291.79196282 -.00000116  00000+0  81762-5 0  9998
2 58152  53.1613  59.0327 0000406 107.2443 252.8602 15.30183412 55417
STARLINK-30831          
1 58153U 23166D   24291.77508135  .00001399  00000+0  59378-4 0  9991
2 58153  53.1594  58.9452 0002279  94.9821 265.1440 15.30190822 55426
STARLINK-30797          
1 58154U 23166E   24291.08296104  .00002413  00000+0  93577-4 0  9993
2 58154  53.1564  62.2177 0001125  82.9994 277.1135 15.30198070 55150
STARLINK-30804          
1 58155U 23166F   24291.65501298 -.00001361  00000+0 -33862-4 0  9994
2 58155  53.1631  59.6118 0001225  70.4768 289.6365 15.30179332 55404
STARLINK-30784          
1 58156U 23166G   24291.07667212  .00001018  00000+0  46507-4 0  9997
2 58156  53.1609  62.3926 0001042  98.3689 261.7430 15.30191154 55158
STARLINK-30803          
1 58157U 23166H   24291.77190578 -.00010452  00000+0 -34086-3 0  9993
2 58157  53.1630  58.9044 0001079  78.8698 281.2424 15.30238396 55192
STARLINK-30829          
1 58158U 23166J   24291.65817210  .00003306  00000+0  12367-3 0  9996
2 58158  53.1619  59.6326 0003248  98.4914 261.6455 15.30210706 55405
STARLINK-30788          
1 58159U 23166K   24291.65184008  .00000149  00000+0  17161-4 0  9999
2 58159  53.1604  59.5923 0001150  68.1274 291.9849 15.30189532 55231
STARLINK-30779          
1 58160U 23166L   24291.77825312 -.00000737  00000+0 -12775-4 0  9995
2 58160  53.1608  58.9617 0001197  82.4160 277.6977 15.30182757 55419
STARLINK-30773          
1 58161U 23166M   24291.76241683  .00000494  00000+0  28789-4 0  9998
2 58161  53.1613  58.8457 0001013  79.1176 280.9939 15.30193099 55421
STARLINK-30816          
1 58162U 23166N   24291.62862521 -.00000650  00000+0 -98238-5 0  9997
2 58162  53.1581  59.4491 0001465 114.2903 245.8251 15.30179131 55407
